STARLINK-1764           
1 46343U 20062U   26068.90986034  .00107455  00000+0  99333-3 0  9992
2 46343  53.0450 315.9893 0000473 302.3182  57.7787 15.66750924305183
STARLINK-1815           
1 46713U 20073AV  26069.00003471  .00010738  00000+0  98094-4 0  9993
2 46713  53.0443 200.7345 0003794 346.0090 244.5885 15.68490192  5532
